{
  "type": "FeatureCollection",
  "features": [
    {
      "type": "Feature",
      "properties": {
        "norad_id": 44231,
        "name": "BEIDOU-2 G8 (C01)",
        "group": "gnss",
        "lat": -0.5804002356410677,
        "lon": -85.32147780042854,
        "alt_km": 35766.4372604865,
        "timestamp": "2025-12-04T03:47:54.789112+00:00",
        "meta_object_name": "BEIDOU-2 G8 (C01)",
        "meta_object_id": "2019-027A",
        "meta_epoch": "2025-12-03T19:34:50.268576",
        "meta_mean_motion": 1.00270041,
        "meta_eccentricity": 0.0008345,
        "meta_inclination": 1.6376,
        "meta_ra_of_asc_node": 74.7006,
        "meta_arg_of_pericenter": 254.7758,
        "meta_mean_anomaly": 181.7028,
        "meta_ephemeris_type": 0,
        "meta_classification_type": "U",
        "meta_norad_cat_id": 44231,
        "meta_element_set_no": 999,
        "meta_rev_at_epoch": 2412,
        "meta_bstar": 0,
        "meta_mean_motion_dot": -2.3e-06,
        "meta_mean_motion_ddot": 0,
        "tle_line1": "1 44231U 19027A   25337.81585959 -.00000230  00000+0  00000+0 0  9997",
        "tle_line2": "2 44231   1.6376  74.7006 0008345 254.7758 181.7028  1.00270041 24122"
      },
      "geometry": {
        "type": "Point",
        "coordinates": [
          -85.32147780042854,
          -0.5804002356410677
        ]
      }
    },
    {
      "type": "Feature",
      "properties": {
        "norad_id": 44299,
        "name": "COSMOS 2534 (758)",
        "group": "gnss",
        "lat": -62.86969390757661,
        "lon": 129.6542836291651,
        "alt_km": 19113.247887807178,
        "timestamp": "2025-12-04T03:47:54.789123+00:00",
        "meta_object_name": "COSMOS 2534 (758)",
        "meta_object_id": "2019-030A",
        "meta_epoch": "2025-12-01T03:07:57.438624",
        "meta_mean_motion": 2.1310195,
        "meta_eccentricity": 0.00091167,
        "meta_inclination": 64.3652,
        "meta_ra_of_asc_node": 199.2842,
        "meta_arg_of_pericenter": 283.4428,
        "meta_mean_anomaly": 193.0266,
        "meta_ephemeris_type": 0,
        "meta_classification_type": "U",
        "meta_norad_cat_id": 44299,
        "meta_element_set_no": 999,
        "meta_rev_at_epoch": 5070,
        "meta_bstar": 0,
        "meta_mean_motion_dot": 9.9e-07,
        "meta_mean_motion_ddot": 0,
        "tle_line1": "1 44299U 19030A   25335.13052591  .00000099  00000+0  00000+0 0  9991",
        "tle_line2": "2 44299  64.3652 199.2842 0009116 283.4428 193.0266  2.13101950 50700"
      },
      "geometry": {
        "type": "Point",
        "coordinates": [
          129.6542836291651,
          -62.86969390757661
        ]
      }
    },
    {
      "type": "Feature",
      "properties": {
        "norad_id": 44337,
        "name": "BEIDOU-3 IGSO-2 (C39)",
        "group": "gnss",
        "lat": 55.137870784130534,
        "lon": -111.60546077482933,
        "alt_km": 35842.822818536784,
        "timestamp": "2025-12-04T03:47:54.789137+00:00",
        "meta_object_name": "BEIDOU-3 IGSO-2 (C39)",
        "meta_object_id": "2019-035A",
        "meta_epoch": "2025-12-01T05:17:49.661952",
        "meta_mean_motion": 1.00274502,
        "meta_eccentricity": 0.00376064,
        "meta_inclination": 55.2223,
        "meta_ra_of_asc_node": 160.6035,
        "meta_arg_of_pericenter": 202.2564,
        "meta_mean_anomaly": 266.4761,
        "meta_ephemeris_type": 0,
        "meta_classification_type": "U",
        "meta_norad_cat_id": 44337,
        "meta_element_set_no": 999,
        "meta_rev_at_epoch": 2368,
        "meta_bstar": 0,
        "meta_mean_motion_dot": -2.5e-07,
        "meta_mean_motion_ddot": 0,
        "tle_line1": "1 44337U 19035A   25335.22071368 -.00000025  00000+0  00000+0 0  9992",
        "tle_line2": "2 44337  55.2223 160.6035 0037606 202.2564 266.4761  1.00274502 23688"
      },
      "geometry": {
        "type": "Point",
        "coordinates": [
          -111.60546077482933,
          55.137870784130534
        ]
      }
    },
    {
      "type": "Feature",
      "properties": {
        "norad_id": 44506,
        "name": "GPS BIII-2  (PRN 18)",
        "group": "gnss",
        "lat": -28.588312100717413,
        "lon": -42.92636514171404,
        "alt_km": 20275.45450850086,
        "timestamp": "2025-12-04T03:47:54.789149+00:00",
        "meta_object_name": "GPS BIII-2  (PRN 18)",
        "meta_object_id": "2019-056A",
        "meta_epoch": "2025-12-02T10:49:28.764768",
        "meta_mean_motion": 2.00565569,
        "meta_eccentricity": 0.00578163,
        "meta_inclination": 55.7251,
        "meta_ra_of_asc_node": 338.9617,
        "meta_arg_of_pericenter": 198.402,
        "meta_mean_anomaly": 332.9603,
        "meta_ephemeris_type": 0,
        "meta_classification_type": "U",
        "meta_norad_cat_id": 44506,
        "meta_element_set_no": 999,
        "meta_rev_at_epoch": 4612,
        "meta_bstar": 0,
        "meta_mean_motion_dot": -6.1e-07,
        "meta_mean_motion_ddot": 0,
        "tle_line1": "1 44506U 19056A   25336.45102737 -.00000061  00000+0  00000+0 0  9994",
        "tle_line2": "2 44506  55.7251 338.9617 0057816 198.4020 332.9603  2.00565569 46121"
      },
      "geometry": {
        "type": "Point",
        "coordinates": [
          -42.92636514171404,
          -28.588312100717413
        ]
      }
    },
    {
      "type": "Feature",
      "properties": {
        "norad_id": 44542,
        "name": "BEIDOU-3 M24 (C46)",
        "group": "gnss",
        "lat": -48.11943966933824,
        "lon": 62.353438180402,
        "alt_km": 21553.370881395782,
        "timestamp": "2025-12-04T03:47:54.789160+00:00",
        "meta_object_name": "BEIDOU-3 M24 (C46)",
        "meta_object_id": "2019-061A",
        "meta_epoch": "2025-12-03T06:05:38.085792",
        "meta_mean_motion": 1.86229268,
        "meta_eccentricity": 0.000957,
        "meta_inclination": 54.4002,
        "meta_ra_of_asc_node": 189.3364,
        "meta_arg_of_pericenter": 23.8739,
        "meta_mean_anomaly": 336.2665,
        "meta_ephemeris_type": 0,
        "meta_classification_type": "U",
        "meta_norad_cat_id": 44542,
        "meta_element_set_no": 999,
        "meta_rev_at_epoch": 4214,
        "meta_bstar": 0,
        "meta_mean_motion_dot": 1.17e-06,
        "meta_mean_motion_ddot": 0,
        "tle_line1": "1 44542U 19061A   25337.25391303  .00000117  00000+0  00000+0 0  9999",
        "tle_line2": "2 44542  54.4002 189.3364 0009570  23.8739 336.2665  1.86229268 42149"
      },
      "geometry": {
        "type": "Point",
        "coordinates": [
          62.353438180402,
          -48.11943966933824
        ]
      }
    },
    {
      "type": "Feature",
      "properties": {
        "norad_id": 44543,
        "name": "BEIDOU-3 M23 (C45)",
        "group": "gnss",
        "lat": 16.70957029876531,
        "lon": -3.136967764947522,
        "alt_km": 21538.785954139308,
        "timestamp": "2025-12-04T03:47:54.789171+00:00",
        "meta_object_name": "BEIDOU-3 M23 (C45)",
        "meta_object_id": "2019-061B",
        "meta_epoch": "2025-12-03T15:47:05.540064",
        "meta_mean_motion": 1.86227423,
        "meta_eccentricity": 0.0006128,
        "meta_inclination": 54.3989,
        "meta_ra_of_asc_node": 189.2914,
        "meta_arg_of_pericenter": 23.0317,
        "meta_mean_anomaly": 160.6482,
        "meta_ephemeris_type": 0,
        "meta_classification_type": "U",
        "meta_norad_cat_id": 44543,
        "meta_element_set_no": 999,
        "meta_rev_at_epoch": 4215,
        "meta_bstar": 0,
        "meta_mean_motion_dot": 1.14e-06,
        "meta_mean_motion_ddot": 0,
        "tle_line1": "1 44543U 19061B   25337.65770301  .00000114  00000+0  00000+0 0  9990",
        "tle_line2": "2 44543  54.3989 189.2914 0006128  23.0317 160.6482  1.86227423 42151"
      },
      "geometry": {
        "type": "Point",
        "coordinates": [
          -3.136967764947522,
          16.70957029876531
        ]
      }
    },
    {
      "type": "Feature",
      "properties": {
        "norad_id": 44624,
        "name": "EUTELSAT 5 WEST B (EGNOS/PRN 121)",
        "group": "gnss",
        "lat": 0.0359324335023442,
        "lon": 125.17780459556346,
        "alt_km": 35795.649106808145,
        "timestamp": "2025-12-04T03:47:54.789183+00:00",
        "meta_object_name": "EUTELSAT 5 WEST B (EGNOS/PRN 121)",
        "meta_object_id": "2019-067A",
        "meta_epoch": "2025-12-03T17:09:26.693856",
        "meta_mean_motion": 1.00272793,
        "meta_eccentricity": 0.0003711,
        "meta_inclination": 0.0708,
        "meta_ra_of_asc_node": 328.8657,
        "meta_arg_of_pericenter": 285.1903,
        "meta_mean_anomaly": 71.1223,
        "meta_ephemeris_type": 0,
        "meta_classification_type": "U",
        "meta_norad_cat_id": 44624,
        "meta_element_set_no": 999,
        "meta_rev_at_epoch": 2247,
        "meta_bstar": 0,
        "meta_mean_motion_dot": -2.4e-07,
        "meta_mean_motion_ddot": 0,
        "tle_line1": "1 44624U 19067A   25337.71489229 -.00000024  00000+0  00000+0 0  9990",
        "tle_line2": "2 44624   0.0708 328.8657 0003711 285.1903  71.1223  1.00272793 22478"
      },
      "geometry": {
        "type": "Point",
        "coordinates": [
          125.17780459556346,
          0.0359324335023442
        ]
      }
    }
  ]
}